GLOBALSTAR M045         
1 25676U 99019A   24123.05381976 -.00000093  00000+0  56626-5 0  9997
2 25676  51.9994  37.0588 0000980  96.9427 276.1246 12.27036469143163
GLOBALSTAR M019         
1 25677U 99019B   24122.82156845 -.00000072  00000+0  18669-3 0  9997
2 25677  51.9844 139.1467 0001052 212.1045 319.3064 12.13853983135181
GLOBALSTAR M044         
1 25678U 99019C   24122.75842814 -.00000056  00000+0  38525-3 0  9993
2 25678  51.9995  39.2097 0006263 331.3160  43.8596 11.90231730122335
GLOBALSTAR M042         
1 25679U 99019D   24122.76596950 -.00000062  00000+0  28393-3 0  9991
2 25679  51.9985 132.3834 0002950 170.3584   1.4386 12.22060835134959
GLOBALSTAR M025         
1 25770U 99031A   24122.49771843 -.00000057  00000+0  32562-3 0  9990
2 25770  51.9851  32.9715 0001257 157.6069  12.7838 11.22550553435479
GLOBALSTAR M049         
1 25771U 99031B   24122.50927985  .00000005  00000+0  24508-2 0  9995
2 25771  51.9901  47.0184 0003239  43.3787 316.7264 11.12104037 71627
GLOBALSTAR M047         
1 25772U 99031C   24122.89933721 -.00000059  00000+0  29862-3 0  9992
2 25772  51.9824  82.3962 0016371 277.6813  82.2134 11.31920433424531
GLOBALSTAR M052         
1 25773U 99031D   24122.87594397 -.00000050  00000+0  52842-3 0  9998
2 25773  51.9831 160.6513 0002931 212.5834 318.4317 11.15050718432628
